start=new Date('2022-02-17T00:00:00.000Z').valueOf();
sats=[{"BSTAR":"-0.00040618000000","FILE":"3302660","SEMIMAJOR_AXIS":"6727.675","MEAN_ELEMENT_THEORY":"SGP4","RA_OF_ASC_NODE":"131.6057","ARG_OF_PERICENTER":"12.3919","OBJECT_ID":"2022-005H","SITE":"AFETR","COUNTRY_CODE":"US","NORAD_CAT_ID":"51111","ECCENTRICITY":"0.00028440","OBJECT_NAME":"STARLINK-3173","INCLINATION":"53.2158","TLE_LINE2":"2 51111  53.2158 131.6057 0002844  12.3919 297.4301 15.73277200  3712","LAUNCH_DATE":"2022-01-19","TIME_SYSTEM":"UTC","GP_ID":"196134878","MEAN_MOTION_DOT":"-0.00057441","PERIAPSIS":"347.627","MEAN_MOTION_DDOT":"0.0000000000000","TLE_LINE1":"1 51111U 22005H   22047.91667824 -.00057441  00000-0 -40618-3 0  9991","EPHEMERIS_TYPE":"0","CENTER_NAME":"EARTH","MEAN_MOTION":"15.73277200","RCS_SIZE":"LARGE","REV_AT_EPOCH":"371","DECAY_DATE":null,"APOAPSIS":"351.453","ELEMENT_SET_NO":"999","EPOCH":"2022-02-16T22:00:00.999936","REF_FRAME":"TEME","OBJECT_TYPE":"PAYLOAD","CLASSIFICATION_TYPE":"U","PERIOD":"91.529","MEAN_ANOMALY":"297.4301"},{"MEAN_ANOMALY":"290.5426","PERIOD":"91.528","CLASSIFICATION_TYPE":"U","EPOCH":"2022-02-16T22:00:00.999936","OBJECT_TYPE":"PAYLOAD","REF_FRAME":"TEME","APOAPSIS":"351.416","DECAY_DATE":null,"ELEMENT_SET_NO":"999","MEAN_MOTION":"15.73287905","RCS_SIZE":"LARGE","REV_AT_EPOCH":"371","EPHEMERIS_TYPE":"0","CENTER_NAME":"EARTH","TLE_LINE1":"1 51112U 22005J   22047.91667824 -.00100184  00000-0 -71501-3 0  9990","PERIAPSIS":"347.603","MEAN_MOTION_DOT":"-0.00100184","MEAN_MOTION_DDOT":"0.0000000000000","GP_ID":"196135053","INCLINATION":"53.2154","TIME_SYSTEM":"UTC","LAUNCH_DATE":"2022-01-19","TLE_LINE2":"2 51112  53.2154 131.6136 0002834  15.4920 290.5426 15.73287905  3717","OBJECT_NAME":"STARLINK-3374","SITE":"AFETR","COUNTRY_CODE":"US","NORAD_CAT_ID":"51112","ECCENTRICITY":"0.00028340","RA_OF_ASC_NODE":"131.6136","MEAN_ELEMENT_THEORY":"SGP4","OBJECT_ID":"2022-005J","ARG_OF_PERICENTER":"15.4920","FILE":"3302660","BSTAR":"-0.00071501000000","SEMIMAJOR_AXIS":"6727.645"},{"MEAN_ANOMALY":"289.8609","PERIOD":"91.528","CLASSIFICATION_TYPE":"U","EPOCH":"2022-02-16T22:00:00.999936","OBJECT_TYPE":"PAYLOAD","REF_FRAME":"TEME","APOAPSIS":"351.288","DECAY_DATE":null,"ELEMENT_SET_NO":"999","RCS_SIZE":"LARGE","MEAN_MOTION":"15.73287699","REV_AT_EPOCH":"371","EPHEMERIS_TYPE":"0","CENTER_NAME":"EARTH","TLE_LINE1":"1 51113U 22005K   22047.91667824 -.00057401  00000-0 -40573-3 0  9999","PERIAPSIS":"347.732","MEAN_MOTION_DOT":"-0.00057401","MEAN_MOTION_DDOT":"0.0000000000000","GP_ID":"196135294","INCLINATION":"53.2161","TIME_SYSTEM":"UTC","LAUNCH_DATE":"2022-01-19","TLE_LINE2":"2 51113  53.2161 131.6096 0002643  18.0197 289.8609 15.73287699  3718","OBJECT_NAME":"STARLINK-3372","COUNTRY_CODE":"US","SITE":"AFETR","NORAD_CAT_ID":"51113","ECCENTRICITY":"0.00026430","RA_OF_ASC_NODE":"131.6096","MEAN_ELEMENT_THEORY":"SGP4","ARG_OF_PERICENTER":"18.0197","OBJECT_ID":"2022-005K","BSTAR":"-0.00040573000000","FILE":"3302660","SEMIMAJOR_AXIS":"6727.645"},{"OBJECT_NAME":"STARLINK-3375","NORAD_CAT_ID":"51114","ECCENTRICITY":"0.00028160","SITE":"AFETR","COUNTRY_CODE":"US","ARG_OF_PERICENTER":"16.5159","OBJECT_ID":"2022-005L","MEAN_ELEMENT_THEORY":"SGP4","RA_OF_ASC_NODE":"131.6167","SEMIMAJOR_AXIS":"6727.666","FILE":"3302660","BSTAR":"-0.00068029000000","GP_ID":"196134791","TLE_LINE2":"2 51114  53.2160 131.6167 0002816  16.5159 288.2614 15.73280318  3710","LAUNCH_DATE":"2022-01-19","TIME_SYSTEM":"UTC","INCLINATION":"53.2160","REV_AT_EPOCH":"371","MEAN_MOTION":"15.73280318","RCS_SIZE":"LARGE","CENTER_NAME":"EARTH","EPHEMERIS_TYPE":"0","TLE_LINE1":"1 51114U 22005L   22047.91667824 -.00095371  00000-0 -68029-3 0  9994","MEAN_MOTION_DDOT":"0.0000000000000","MEAN_MOTION_DOT":"-0.00095371","PERIAPSIS":"347.637","MEAN_ANOMALY":"288.2614","CLASSIFICATION_TYPE":"U","PERIOD":"91.529","REF_FRAME":"TEME","OBJECT_TYPE":"PAYLOAD","EPOCH":"2022-02-16T22:00:00.999936","ELEMENT_SET_NO":"999","DECAY_DATE":null,"APOAPSIS":"351.426"},{"TLE_LINE1":"1 51115U 22005M   22047.91667824  .00006998  00000-0  54256-4 0  9998","MEAN_MOTION_DOT":"0.00006998","PERIAPSIS":"347.939","MEAN_MOTION_DDOT":"0.0000000000000","MEAN_MOTION":"15.73195986","RCS_SIZE":"LARGE","REV_AT_EPOCH":"371","EPHEMERIS_TYPE":"0","CENTER_NAME":"EARTH","EPOCH":"2022-02-16T22:00:00.999936","REF_FRAME":"TEME","OBJECT_TYPE":"PAYLOAD","DECAY_DATE":null,"APOAPSIS":"351.604","ELEMENT_SET_NO":"999","MEAN_ANOMALY":"295.4798","CLASSIFICATION_TYPE":"U","PERIOD":"91.533","MEAN_ELEMENT_THEORY":"SGP4","RA_OF_ASC_NODE":"131.6064","ARG_OF_PERICENTER":"13.7948","OBJECT_ID":"2022-005M","BSTAR":"0.00005425600000","FILE":"3302660","SEMIMAJOR_AXIS":"6727.907","OBJECT_NAME":"STARLINK-3397","SITE":"AFETR","COUNTRY_CODE":"US","ECCENTRICITY":"0.00027240","NORAD_CAT_ID":"51115","GP_ID":"196135207","INCLINATION":"53.2160","TLE_LINE2":"2 51115  53.2160 131.6064 0002724  13.7948 295.4798 15.73195986  3719","TIME_SYSTEM":"UTC","LAUNCH_DATE":"2022-01-19"},{"CENTER_NAME":"EARTH","EPHEMERIS_TYPE":"0","REV_AT_EPOCH":"368","MEAN_MOTION":"15.73220832","RCS_SIZE":"LARGE","MEAN_MOTION_DDOT":"0.0000000000000","PERIAPSIS":"347.820","MEAN_MOTION_DOT":"0.00005616","TLE_LINE1":"1 51116U 22005N   22047.91667824  .00005616  00000-0  44380-4 0  9992","PERIOD":"91.532","CLASSIFICATION_TYPE":"U","MEAN_ANOMALY":"283.4554","ELEMENT_SET_NO":"999","APOAPSIS":"351.581","DECAY_DATE":null,"OBJECT_TYPE":"PAYLOAD","REF_FRAME":"TEME","EPOCH":"2022-02-16T22:00:00.999936","NORAD_CAT_ID":"51116","ECCENTRICITY":"0.00027950","COUNTRY_CODE":"US","SITE":"AFETR","OBJECT_NAME":"STARLINK-3243","SEMIMAJOR_AXIS":"6727.836","FILE":"3302660","BSTAR":"0.00004438000000","OBJECT_ID":"2022-005N","ARG_OF_PERICENTER":"23.1727","RA_OF_ASC_NODE":"131.6130","MEAN_ELEMENT_THEORY":"SGP4","TIME_SYSTEM":"UTC","LAUNCH_DATE":"2022-01-19","TLE_LINE2":"2 51116  53.2162 131.6130 0002795  23.1727 283.4554 15.73220832  3686","INCLINATION":"53.2162","GP_ID":"196135381"},{"TLE_LINE1":"1 51117U 22005P   22047.91667824  .00009228  00000-0  70080-4 0  9992","MEAN_MOTION_DDOT":"0.0000000000000","MEAN_MOTION_DOT":"0.00009228","PERIAPSIS":"347.852","REV_AT_EPOCH":"371","MEAN_MOTION":"15.73206202","RCS_SIZE":"LARGE","CENTER_NAME":"EARTH","EPHEMERIS_TYPE":"0","REF_FRAME":"TEME","OBJECT_TYPE":"PAYLOAD","EPOCH":"2022-02-16T22:00:00.999936","ELEMENT_SET_NO":"999","DECAY_DATE":null,"APOAPSIS":"351.633","MEAN_ANOMALY":"301.5528","CLASSIFICATION_TYPE":"U","PERIOD":"91.533","OBJECT_ID":"2022-005P","ARG_OF_PERICENTER":"10.1772","MEAN_ELEMENT_THEORY":"SGP4","RA_OF_ASC_NODE":"131.6020","SEMIMAJOR_AXIS":"6727.877","BSTAR":"0.00007008000000","FILE":"3302660","OBJECT_NAME":"STARLINK-3391","NORAD_CAT_ID":"51117","ECCENTRICITY":"0.00028100","COUNTRY_CODE":"US","SITE":"AFETR","GP_ID":"196134966","TLE_LINE2":"2 51117  53.2158 131.6020 0002810  10.1772 301.5528 15.73206202  3716","TIME_SYSTEM":"UTC","LAUNCH_DATE":"2022-01-19","INCLINATION":"53.2158"},{"GP_ID":"196135120","INCLINATION":"53.2148","TLE_LINE2":"2 51118  53.2148 131.6106 0002880  13.7152 294.8683 15.73255797  3718","TIME_SYSTEM":"UTC","LAUNCH_DATE":"2022-01-19","MEAN_ELEMENT_THEORY":"SGP4","RA_OF_ASC_NODE":"131.6106","ARG_OF_PERICENTER":"13.7152","OBJECT_ID":"2022-005Q","BSTAR":"-0.00037010000000","FILE":"3302660","SEMIMAJOR_AXIS":"6727.736","OBJECT_NAME":"STARLINK-3394","COUNTRY_CODE":"US","SITE":"AFETR","NORAD_CAT_ID":"51118","ECCENTRICITY":"0.00028800","EPOCH":"2022-02-16T22:00:00.999936","REF_FRAME":"TEME","OBJECT_TYPE":"PAYLOAD","DECAY_DATE":null,"APOAPSIS":"351.539","ELEMENT_SET_NO":"999","MEAN_ANOMALY":"294.8683","CLASSIFICATION_TYPE":"U","PERIOD":"91.530","TLE_LINE1":"1 51118U 22005Q   22047.91667824 -.00052378  00000-0 -37010-3 0  9994","MEAN_MOTION_DOT":"-0.00052378","PERIAPSIS":"347.664","MEAN_MOTION_DDOT":"0.0000000000000","RCS_SIZE":"LARGE","MEAN_MOTION":"15.73255797","REV_AT_EPOCH":"371","EPHEMERIS_TYPE":"0","CENTER_NAME":"EARTH"},{"CENTER_NAME":"EARTH","EPHEMERIS_TYPE":"0","REV_AT_EPOCH":"586","MEAN_MOTION":"15.73275663","RCS_SIZE":"LARGE","MEAN_MOTION_DDOT":"0.0000000000000","MEAN_MOTION_DOT":"-0.00055523","PERIAPSIS":"347.737","TLE_LINE1":"1 51119U 22005R   22047.91667824 -.00055523  00000-0 -39242-3 0  9999","CLASSIFICATION_TYPE":"U","PERIOD":"91.529","MEAN_ANOMALY":"285.5073","ELEMENT_SET_NO":"999","DECAY_DATE":null,"APOAPSIS":"351.352","REF_FRAME":"TEME","OBJECT_TYPE":"PAYLOAD","EPOCH":"2022-02-16T22:00:00.999936","NORAD_CAT_ID":"51119","ECCENTRICITY":"0.00026870","COUNTRY_CODE":"US","SITE":"AFETR","OBJECT_NAME":"STARLINK-3390","SEMIMAJOR_AXIS":"6727.679","BSTAR":"-0.00039242000000","FILE":"3302318","ARG_OF_PERICENTER":"26.8575","OBJECT_ID":"2022-005R","MEAN_ELEMENT_THEORY":"SGP4","RA_OF_ASC_NODE":"131.5994","TLE_LINE2":"2 51119  53.2171 131.5994 0002687  26.8575 285.5073 15.73275663  5860","TIME_SYSTEM":"UTC","LAUNCH_DATE":"2022-01-19","INCLINATION":"53.2171","GP_ID":"196102284"},{"OBJECT_NAME":"STARLINK-3398","COUNTRY_CODE":"US","SITE":"AFETR","NORAD_CAT_ID":"51120","ECCENTRICITY":"0.00025580","MEAN_ELEMENT_THEORY":"SGP4","RA_OF_ASC_NODE":"131.5977","OBJECT_ID":"2022-005S","ARG_OF_PERICENTER":"12.0159","BSTAR":"0.00006822300000","FILE":"3302660","SEMIMAJOR_AXIS":"6727.913","GP_ID":"196135054","INCLINATION":"53.2161","TLE_LINE2":"2 51120  53.2161 131.5977 0002558  12.0159 301.6759 15.73193677  3711","TIME_SYSTEM":"UTC","LAUNCH_DATE":"2022-01-19","MEAN_MOTION":"15.73193677","RCS_SIZE":"LARGE","REV_AT_EPOCH":"371","EPHEMERIS_TYPE":"0","CENTER_NAME":"EARTH","TLE_LINE1":"1 51120U 22005S   22047.91667824  .00008961  00000-0  68223-4 0  9995","MEAN_MOTION_DOT":"0.00008961","PERIAPSIS":"348.057","MEAN_MOTION_DDOT":"0.0000000000000","MEAN_ANOMALY":"301.6759","CLASSIFICATION_TYPE":"U","PERIOD":"91.534","EPOCH":"2022-02-16T22:00:00.999936","REF_FRAME":"TEME","OBJECT_TYPE":"PAYLOAD","DECAY_DATE":null,"APOAPSIS":"351.499","ELEMENT_SET_NO":"999"}];
